{
  "norad_id": 64500,
  "name": "KUIPER-00039",
  "history": [
    {
      "epoch": "2026-03-28T21:01:51.334176",
      "apogee_km": 629.8100848370032,
      "perigee_km": 629.1345512987418,
      "latitude_deg": 4.332293309378706,
      "longitude_deg": -5.876295360038057,
      "semi_major_axis_km": 7007.609318067873,
      "eccentricity": 4.82e-05,
      "inclination_deg": 51.901,
      "raan_deg": 148.2515,
      "arg_perigee_deg": 67.9466,
      "mean_anomaly_deg": 292.1547,
      "mean_motion_rev_day": 14.79953056
    }
  ]
}