{"fetched_at":"2026-03-29T16:36:15Z","count":15609,"tles":[{"name":"KUIPER-00039","line1":"1 64500U 25134A   26087.87628859  .00004209  00000+0  58053-3 0  9994","line2":"2 64500  51.9010 148.2515 0000482  67.9466 292.1547 14.79953056 42916","category":"Other"}]}